[{"OBJECT_NAME":"HAIYANG 4-01","OBJECT_ID":"2024-208A","EPOCH":"2026-03-09T23:12:53.957952","MEAN_MOTION":14.73328674,"ECCENTRICITY":0.00022294,"INCLINATION":98.0072,"RA_OF_ASC_NODE":78.0681,"ARG_OF_PERICENTER":108.1992,"MEAN_ANOMALY":251.9459,"EPHEMERIS_TYPE":0,"CLASSIFICATION_TYPE":"U","NORAD_CAT_ID":61936,"ELEMENT_SET_NO":999,"REV_AT_EPOCH":7083,"BSTAR":0.00012921781,"MEAN_MOTION_DOT":7.86e-6,"MEAN_MOTION_DDOT":0},{"OBJECT_NAME":"IRIDIUM 33 DEB","OBJECT_ID":"1997-051MY","EPOCH":"2026-03-09T08:53:47.178816","MEAN_MOTION":14.67283018,"ECCENTRICITY":0.00238001,"INCLINATION":86.325,"RA_OF_ASC_NODE":287.8087,"ARG_OF_PERICENTER":283.255,"MEAN_ANOMALY":199.3546,"EPHEMERIS_TYPE":0,"CLASSIFICATION_TYPE":"U","NORAD_CAT_ID":34896,"ELEMENT_SET_NO":999,"REV_AT_EPOCH":88889,"BSTAR":0.00085086349,"MEAN_MOTION_DOT":4.839e-5,"MEAN_MOTION_DDOT":0}]
